[{"OBJECT_NAME":"IRIDIUM 135","OBJECT_ID":"2017-083A","EPOCH":"2026-03-09T20:54:11.059776","MEAN_MOTION":14.34219982,"ECCENTRICITY":0.00022174,"INCLINATION":86.4022,"RA_OF_ASC_NODE":3.5181,"ARG_OF_PERICENTER":86.9121,"MEAN_ANOMALY":273.2329,"EPHEMERIS_TYPE":0,"CLASSIFICATION_TYPE":"U","NORAD_CAT_ID":43070,"ELEMENT_SET_NO":999,"REV_AT_EPOCH":42991,"BSTAR":4.5894748e-5,"MEAN_MOTION_DOT":1.48e-6,"MEAN_MOTION_DDOT":0},{"OBJECT_NAME":"UNKNOWN","OBJECT_ID":"","EPOCH":"2026-03-09T09:03:43.141824","MEAN_MOTION":14.34523793,"ECCENTRICITY":0.00151351,"INCLINATION":87.8693,"RA_OF_ASC_NODE":206.4958,"ARG_OF_PERICENTER":173.3033,"MEAN_ANOMALY":186.8369,"EPHEMERIS_TYPE":0,"CLASSIFICATION_TYPE":"U","NORAD_CAT_ID":270429,"ELEMENT_SET_NO":999,"REV_AT_EPOCH":8109,"BSTAR":0.0010050363,"MEAN_MOTION_DOT":2.854e-5,"MEAN_MOTION_DDOT":0}]
